K19E00N 21.17  0.15 K1939 343.19351   46.63108  192.93185    9.77594  0.6187870  0.30650105   2.1786196    FO 190311   190   1   59 days 0.21 M-P 06  Find_Orb   0000 2019 EN                     20190309
